[
    {
        "Altitude(m)": 566587.7538873065,
        "Argument of Periapsis(deg)": 0.006622991110713501,
        "Eccentricity": 0.0,
        "Inclination(deg)": 53.0,
        "Latitude(deg)": -40.16484351031549,
        "Longitude(deg)": -150.01032430614453,
        "Mean Anomaly(deg)": -53.5447071324224,
        "RAAN(deg)": 349.99014336852804,
        "Satellite Name": "Starlink Shell 1 1558",
        "Satellite Number": 1558,
        "Semi-Major Axis(m)": 6931778.249405717,
        "Time(s)": 190
    },
    {
        "Altitude(m)": 566426.9031191164,
        "Argument of Periapsis(deg)": 0.0069715695902247375,
        "Eccentricity": 0.0,
        "Inclination(deg)": 53.0,
        "Latitude(deg)": -39.77535626227935,
        "Longitude(deg)": -149.4138507028761,
        "Mean Anomaly(deg)": -52.917875928865655,
        "RAAN(deg)": 349.9896245984506,
        "Satellite Name": "Starlink Shell 1 1558",
        "Satellite Number": 1558,
        "Semi-Major Axis(m)": 6931778.249405717,
        "Time(s)": 200
    },
    {
        "Altitude(m)": 566264.7089724788,
        "Argument of Periapsis(deg)": 0.007320148069735974,
        "Eccentricity": 0.0,
        "Inclination(deg)": 53.0,
        "Latitude(deg)": -39.38236850577076,
        "Longitude(deg)": -148.82453638618418,
        "Mean Anomaly(deg)": -52.29104472530897,
        "RAAN(deg)": 349.98910582837306,
        "Satellite Name": "Starlink Shell 1 1558",
        "Satellite Number": 1558,
        "Semi-Major Axis(m)": 6931778.249405717,
        "Time(s)": 210
    },
    {
        "Altitude(m)": 566101.2345075044,
        "Argument of Periapsis(deg)": 0.007668726549247212,
        "Eccentricity": 0.0,
        "Inclination(deg)": 53.0,
        "Latitude(deg)": -38.985965495844795,
        "Longitude(deg)": -148.24226425534334,
        "Mean Anomaly(deg)": -51.66421352175232,
        "RAAN(deg)": 349.9885870582956,
        "Satellite Name": "Starlink Shell 1 1558",
        "Satellite Number": 1558,
        "Semi-Major Axis(m)": 6931778.249405717,
        "Time(s)": 220
    },
    {
        "Altitude(m)": 565936.5432095729,
        "Argument of Periapsis(deg)": 0.00801730502875845,
        "Eccentricity": 0.0,
        "Inclination(deg)": 53.0,
        "Latitude(deg)": -38.58623070030169,
        "Longitude(deg)": -147.66691644264247,
        "Mean Anomaly(deg)": -51.037382318195476,
        "RAAN(deg)": 349.98806828821813,
        "Satellite Name": "Starlink Shell 1 1558",
        "Satellite Number": 1558,
        "Semi-Major Axis(m)": 6931778.249405717,
        "Time(s)": 230
    },
    {
        "Altitude(m)": 565770.6989611443,
        "Argument of Periapsis(deg)": 0.008365883508269684,
        "Eccentricity": 0.0,
        "Inclination(deg)": 53.0,
        "Latitude(deg)": -38.183245817513786,
        "Longitude(deg)": -147.09837401313285,
        "Mean Anomaly(deg)": -50.41055111463883,
        "RAAN(deg)": 349.98754951814067,
        "Satellite Name": "Starlink Shell 1 1558",
        "Satellite Number": 1558,
        "Semi-Major Axis(m)": 6931778.249405717,
        "Time(s)": 240
    },
    {
        "Altitude(m)": 565603.7660133912,
        "Argument of Periapsis(deg)": 0.008714461987780921,
        "Eccentricity": 0.0,
        "Inclination(deg)": 53.0,
        "Latitude(deg)": -37.77709079649819,
        "Longitude(deg)": -146.53651816284835,
        "Mean Anomaly(deg)": -49.78371991108214,
        "RAAN(deg)": 349.98703074806315,
        "Satellite Name": "Starlink Shell 1 1558",
        "Satellite Number": 1558,
        "Semi-Major Axis(m)": 6931778.249405717,
        "Time(s)": 250
    },
    {
        "Altitude(m)": 565435.8089576392,
        "Argument of Periapsis(deg)": 0.009063040467292158,
        "Eccentricity": 0.0,
        "Inclination(deg)": 53.0,
        "Latitude(deg)": -37.367843859000054,
        "Longitude(deg)": -145.98122989034425,
        "Mean Anomaly(deg)": -49.15688870752539,
        "RAAN(deg)": 349.98651197798574,
        "Satellite Name": "Starlink Shell 1 1558",
        "Satellite Number": 1558,
        "Semi-Major Axis(m)": 6931778.249405717,
        "Time(s)": 260
    },
    {
        "Altitude(m)": 565266.8926966373,
        "Argument of Periapsis(deg)": 0.009411618946803396,
        "Eccentricity": 0.0,
        "Inclination(deg)": 53.0,
        "Latitude(deg)": -36.955581523357345,
        "Longitude(deg)": -145.43238965502266,
        "Mean Anomaly(deg)": -48.53005750396864,
        "RAAN(deg)": 349.9859932079083,
        "Satellite Name": "Starlink Shell 1 1558",
        "Satellite Number": 1558,
        "Semi-Major Axis(m)": 6931778.249405717,
        "Time(s)": 270
    },
    {
        "Altitude(m)": 565097.0824156865,
        "Argument of Periapsis(deg)": 0.009760197426314633,
        "Eccentricity": 0.0,
        "Inclination(deg)": 53.0,
        "Latitude(deg)": -36.54037862993309,
        "Longitude(deg)": -144.88987853571973,
        "Mean Anomaly(deg)": -47.903226300411944,
        "RAAN(deg)": 349.98547443783076,
        "Satellite Name": "Starlink Shell 1 1558",
        "Satellite Number": 1558,
        "Semi-Major Axis(m)": 6931778.249405717,
        "Time(s)": 280
    },
    {
        "Altitude(m)": 564926.4435536148,
        "Argument of Periapsis(deg)": 0.01010877590582587,
        "Eccentricity": 0.0,
        "Inclination(deg)": 53.0,
        "Latitude(deg)": -36.122308367922884,
        "Longitude(deg)": -144.3535778644048,
        "Mean Anomaly(deg)": -47.276395096855246,
        "RAAN(deg)": 349.9849556677533,
        "Satellite Name": "Starlink Shell 1 1558",
        "Satellite Number": 1558,
        "Semi-Major Axis(m)": 6931778.249405717,
        "Time(s)": 290
    },
    {
        "Altitude(m)": 564755.041773624,
        "Argument of Periapsis(deg)": 0.010457354385337106,
        "Eccentricity": 0.0,
        "Inclination(deg)": 53.0,
        "Latitude(deg)": -35.70144230335217,
        "Longitude(deg)": -143.82336884846055,
        "Mean Anomaly(deg)": -46.649563893298556,
        "RAAN(deg)": 349.98443689767583,
        "Satellite Name": "Starlink Shell 1 1558",
        "Satellite Number": 1558,
        "Semi-Major Axis(m)": 6931778.249405717,
        "Time(s)": 300
    },
    {
        "Altitude(m)": 564582.9429340138,
        "Argument of Periapsis(deg)": 0.010805932864848343,
        "Eccentricity": 0.0,
        "Inclination(deg)": 53.0,
        "Latitude(deg)": -35.277850408089314,
        "Longitude(deg)": -143.29913369500096,
        "Mean Anomaly(deg)": -46.02273268974176,
        "RAAN(deg)": 349.9839181275984,
        "Satellite Name": "Starlink Shell 1 1558",
        "Satellite Number": 1558,
        "Semi-Major Axis(m)": 6931778.249405717,
        "Time(s)": 310
    },
    {
        "Altitude(m)": 564410.2130588314,
        "Argument of Periapsis(deg)": 0.01115451134435958,
        "Eccentricity": 0.0,
        "Inclination(deg)": 53.0,
        "Latitude(deg)": -34.851601089723076,
        "Longitude(deg)": -142.78075521205696,
        "Mean Anomaly(deg)": -45.39590148618516,
        "RAAN(deg)": 349.9833993575209,
        "Satellite Name": "Starlink Shell 1 1558",
        "Satellite Number": 1558,
        "Semi-Major Axis(m)": 6931778.249405717,
        "Time(s)": 320
    },
    {
        "Altitude(m)": 564236.9183083947,
        "Argument of Periapsis(deg)": 0.011503089823870818,
        "Eccentricity": 0.0,
        "Inclination(deg)": 53.0,
        "Latitude(deg)": -34.4227612221545,
        "Longitude(deg)": -142.2681164000616,
        "Mean Anomaly(deg)": -44.76907028262836,
        "RAAN(deg)": 349.9828805874434,
        "Satellite Name": "Starlink Shell 1 1558",
        "Satellite Number": 1558,
        "Semi-Major Axis(m)": 6931778.249405717,
        "Time(s)": 330
    },
    {
        "Altitude(m)": 564063.1249497602,
        "Argument of Periapsis(deg)": 0.011851668303382053,
        "Eccentricity": 0.0,
        "Inclination(deg)": 53.0,
        "Latitude(deg)": -33.99139617676878,
        "Longitude(deg)": -141.76110154705896,
        "Mean Anomaly(deg)": -44.14223907907162,
        "RAAN(deg)": 349.9823618173659,
        "Satellite Name": "Starlink Shell 1 1558",
        "Satellite Number": 1558,
        "Semi-Major Axis(m)": 6931778.249405717,
        "Time(s)": 340
    },
    {
        "Altitude(m)": 563888.8993271226,
        "Argument of Periapsis(deg)": 0.012200246782893292,
        "Eccentricity": 0.0,
        "Inclination(deg)": 53.0,
        "Latitude(deg)": -33.557569854066465,
        "Longitude(deg)": -141.25959580241567,
        "Mean Anomaly(deg)": -43.515407875514974,
        "RAAN(deg)": 349.98184304728846,
        "Satellite Name": "Starlink Shell 1 1558",
        "Satellite Number": 1558,
        "Semi-Major Axis(m)": 6931778.249405717,
        "Time(s)": 350
    },
    {
        "Altitude(m)": 563714.3078321768,
        "Argument of Periapsis(deg)": 0.012548825262404526,
        "Eccentricity": 0.0,
        "Inclination(deg)": 53.0,
        "Latitude(deg)": -33.12134471563958,
        "Longitude(deg)": -140.763484742423,
        "Mean Anomaly(deg)": -42.888576671958276,
        "RAAN(deg)": 349.981324277211,
        "Satellite Name": "Starlink Shell 1 1558",
        "Satellite Number": 1558,
        "Semi-Major Axis(m)": 6931778.249405717,
        "Time(s)": 360
    },
    {
        "Altitude(m)": 563539.4168744363,
        "Argument of Periapsis(deg)": 0.012897403741915765,
        "Eccentricity": 0.0,
        "Inclination(deg)": 53.0,
        "Latitude(deg)": -32.682781816387596,
        "Longitude(deg)": -140.27265544115815,
        "Mean Anomaly(deg)": -42.26174546840153,
        "RAAN(deg)": 349.9808055071335,
        "Satellite Name": "Starlink Shell 1 1558",
        "Satellite Number": 1558,
        "Semi-Major Axis(m)": 6931778.249405717,
        "Time(s)": 370
    }
]